{
  "type": "FeatureCollection",
  "features": [
    {
      "type": "Feature",
      "properties": {
        "norad_id": 67054,
        "name": "STARLINK-35754",
        "group": "last-30-days",
        "lat": -18.691862152480873,
        "lon": 116.76835959710074,
        "alt_km": 302.2068088614551,
        "timestamp": "2025-12-19T22:41:51.099851+00:00",
        "meta_object_name": "STARLINK-35754",
        "meta_object_id": "2025-294AA",
        "meta_epoch": "2025-12-19T18:00:00.998784",
        "meta_mean_motion": 15.91126709,
        "meta_eccentricity": 0.0001559,
        "meta_inclination": 43.0001,
        "meta_ra_of_asc_node": 139.2731,
        "meta_arg_of_pericenter": 268.645,
        "meta_mean_anomaly": 21.1322,
        "meta_ephemeris_type": 0,
        "meta_classification_type": "U",
        "meta_norad_cat_id": 67054,
        "meta_element_set_no": 999,
        "meta_rev_at_epoch": 130,
        "meta_bstar": -0.0052039,
        "meta_mean_motion_dot": -0.01487732,
        "meta_mean_motion_ddot": 0,
        "tle_line1": "1 67054U 25294AA  25353.75001156 -.01487732  00000+0 -52039-2 0  9991",
        "tle_line2": "2 67054  43.0001 139.2731 0001559 268.6450  21.1322 15.91126709  1305"
      },
      "geometry": {
        "type": "Point",
        "coordinates": [
          116.76835959710074,
          -18.691862152480873
        ]
      }
    },
    {
      "type": "Feature",
      "properties": {
        "norad_id": 67055,
        "name": "STARLINK-35790",
        "group": "last-30-days",
        "lat": -17.247113824397605,
        "lon": 118.5901569206994,
        "alt_km": 301.9706753548862,
        "timestamp": "2025-12-19T22:41:51.099861+00:00",
        "meta_object_name": "STARLINK-35790",
        "meta_object_id": "2025-294AB",
        "meta_epoch": "2025-12-19T18:00:00.998784",
        "meta_mean_motion": 15.91179458,
        "meta_eccentricity": 0.0001562,
        "meta_inclination": 42.9998,
        "meta_ra_of_asc_node": 139.2671,
        "meta_arg_of_pericenter": 269.0447,
        "meta_mean_anomaly": 22.9583,
        "meta_ephemeris_type": 0,
        "meta_classification_type": "U",
        "meta_norad_cat_id": 67055,
        "meta_element_set_no": 999,
        "meta_rev_at_epoch": 143,
        "meta_bstar": -0.0052219,
        "meta_mean_motion_dot": -0.01713151,
        "meta_mean_motion_ddot": 0.00080394,
        "tle_line1": "1 67055U 25294AB  25353.75001156 -.01713151  80394-3 -52219-2 0  9997",
        "tle_line2": "2 67055  42.9998 139.2671 0001562 269.0447  22.9583 15.91179458  1438"
      },
      "geometry": {
        "type": "Point",
        "coordinates": [
          118.5901569206994,
          -17.247113824397605
        ]
      }
    },
    {
      "type": "Feature",
      "properties": {
        "norad_id": 67056,
        "name": "STARLINK-36143",
        "group": "last-30-days",
        "lat": -13.564527394483827,
        "lon": 123.03069053100526,
        "alt_km": 301.32631594777285,
        "timestamp": "2025-12-19T22:41:51.099873+00:00",
        "meta_object_name": "STARLINK-36143",
        "meta_object_id": "2025-294AC",
        "meta_epoch": "2025-12-19T18:00:00.998784",
        "meta_mean_motion": 15.91334672,
        "meta_eccentricity": 0.0001499,
        "meta_inclination": 42.9998,
        "meta_ra_of_asc_node": 139.2529,
        "meta_arg_of_pericenter": 268.8006,
        "meta_mean_anomaly": 28.7552,
        "meta_ephemeris_type": 0,
        "meta_classification_type": "U",
        "meta_norad_cat_id": 67056,
        "meta_element_set_no": 999,
        "meta_rev_at_epoch": 143,
        "meta_bstar": -0.005245,
        "meta_mean_motion_dot": -0.0173427,
        "meta_mean_motion_ddot": 0.00082356,
        "tle_line1": "1 67056U 25294AC  25353.75001156 -.01734270  82356-3 -52450-2 0  9990",
        "tle_line2": "2 67056  42.9998 139.2529 0001499 268.8006  28.7552 15.91334672  1439"
      },
      "geometry": {
        "type": "Point",
        "coordinates": [
          123.03069053100526,
          -13.564527394483827
        ]
      }
    },
    {
      "type": "Feature",
      "properties": {
        "norad_id": 67057,
        "name": "STARLINK-36141",
        "group": "last-30-days",
        "lat": -14.871456475483908,
        "lon": 121.48499353775294,
        "alt_km": 301.42950636197475,
        "timestamp": "2025-12-19T22:41:51.099884+00:00",
        "meta_object_name": "STARLINK-36141",
        "meta_object_id": "2025-294AD",
        "meta_epoch": "2025-12-19T18:00:00.998784",
        "meta_mean_motion": 15.91278025,
        "meta_eccentricity": 0.0001482,
        "meta_inclination": 42.9998,
        "meta_ra_of_asc_node": 139.2583,
        "meta_arg_of_pericenter": 276.5239,
        "meta_mean_anomaly": 19.079,
        "meta_ephemeris_type": 0,
        "meta_classification_type": "U",
        "meta_norad_cat_id": 67057,
        "meta_element_set_no": 999,
        "meta_rev_at_epoch": 135,
        "meta_bstar": -0.005228,
        "meta_mean_motion_dot": -0.01723755,
        "meta_mean_motion_ddot": 0.00081392,
        "tle_line1": "1 67057U 25294AD  25353.75001156 -.01723755  81392-3 -52280-2 0  9997",
        "tle_line2": "2 67057  42.9998 139.2583 0001482 276.5239  19.0790 15.91278025  1353"
      },
      "geometry": {
        "type": "Point",
        "coordinates": [
          121.48499353775294,
          -14.871456475483908
        ]
      }
    },
    {
      "type": "Feature",
      "properties": {
        "norad_id": 67058,
        "name": "STARLINK-35767",
        "group": "last-30-days",
        "lat": -16.026019818841636,
        "lon": 120.0925222542654,
        "alt_km": 301.694886377325,
        "timestamp": "2025-12-19T22:41:51.099896+00:00",
        "meta_object_name": "STARLINK-35767",
        "meta_object_id": "2025-294AE",
        "meta_epoch": "2025-12-19T18:00:00.998784",
        "meta_mean_motion": 15.91228353,
        "meta_eccentricity": 0.0001565,
        "meta_inclination": 42.9999,
        "meta_ra_of_asc_node": 139.2623,
        "meta_arg_of_pericenter": 272.366,
        "meta_mean_anomaly": 21.4958,
        "meta_ephemeris_type": 0,
        "meta_classification_type": "U",
        "meta_norad_cat_id": 67058,
        "meta_element_set_no": 999,
        "meta_rev_at_epoch": 130,
        "meta_bstar": -0.0052281,
        "meta_mean_motion_dot": -0.01719459,
        "meta_mean_motion_ddot": 0.00080979,
        "tle_line1": "1 67058U 25294AE  25353.75001156 -.01719459  80979-3 -52281-2 0  9995",
        "tle_line2": "2 67058  42.9999 139.2623 0001565 272.3660  21.4958 15.91228353  1301"
      },
      "geometry": {
        "type": "Point",
        "coordinates": [
          120.0925222542654,
          -16.026019818841636
        ]
      }
    },
    {
      "type": "Feature",
      "properties": {
        "norad_id": 67059,
        "name": "HULIANWANG DIGUI-119",
        "group": "last-30-days",
        "lat": 43.86488280111089,
        "lon": 108.03242673321155,
        "alt_km": 809.7110286664501,
        "timestamp": "2025-12-19T22:41:51.099906+00:00",
        "meta_object_name": "HULIANWANG DIGUI-119",
        "meta_object_id": "2025-295A",
        "meta_epoch": "2025-12-17T11:16:29.850816",
        "meta_mean_motion": 14.25569756,
        "meta_eccentricity": 0.00138963,
        "meta_inclination": 50.007,
        "meta_ra_of_asc_node": 352.2731,
        "meta_arg_of_pericenter": 264.5159,
        "meta_mean_anomaly": 95.417,
        "meta_ephemeris_type": 0,
        "meta_classification_type": "U",
        "meta_norad_cat_id": 67059,
        "meta_element_set_no": 999,
        "meta_rev_at_epoch": 79,
        "meta_bstar": -9.003402e-06,
        "meta_mean_motion_dot": -1.82e-06,
        "meta_mean_motion_ddot": 0,
        "tle_line1": "1 67059U 25295A   25351.46978994 -.00000182  00000+0 -90034-5 0  9995",
        "tle_line2": "2 67059  50.0070 352.2731 0013896 264.5159  95.4170 14.25569756   795"
      },
      "geometry": {
        "type": "Point",
        "coordinates": [
          108.03242673321155,
          43.86488280111089
        ]
      }
    },
    {
      "type": "Feature",
      "properties": {
        "norad_id": 67060,
        "name": "HULIANWANG DIGUI-120",
        "group": "last-30-days",
        "lat": 42.00358719630701,
        "lon": 112.69852184074885,
        "alt_km": 808.7296869602405,
        "timestamp": "2025-12-19T22:41:51.099917+00:00",
        "meta_object_name": "HULIANWANG DIGUI-120",
        "meta_object_id": "2025-295B",
        "meta_epoch": "2025-12-15T17:12:24.401376",
        "meta_mean_motion": 14.25706335,
        "meta_eccentricity": 0.00132237,
        "meta_inclination": 50.005,
        "meta_ra_of_asc_node": 359.6709,
        "meta_arg_of_pericenter": 257.265,
        "meta_mean_anomaly": 102.6786,
        "meta_ephemeris_type": 0,
        "meta_classification_type": "U",
        "meta_norad_cat_id": 67060,
        "meta_element_set_no": 999,
        "meta_rev_at_epoch": 54,
        "meta_bstar": 6.6896441e-05,
        "meta_mean_motion_dot": 0,
        "meta_mean_motion_ddot": 0,
        "tle_line1": "1 67060U 25295B   25349.71694909  .00000000  00000+0  66896-4 0  9998",
        "tle_line2": "2 67060  50.0050 359.6709 0013223 257.2650 102.6786 14.25706335   543"
      },
      "geometry": {
        "type": "Point",
        "coordinates": [
          112.69852184074885,
          42.00358719630701
        ]
      }
    }
  ]
}